[Satellite]
VERSION=1.1
NAME=SL-16 R/B
NICKNAME=SL-16 R/B
TLE1=1 20625U 90046B   18020.64554346 -.00000271  00000-0 -11631-3 0  9999
TLE2=2 20625  70.9974  52.7372 0012842 145.5594 214.6364 14.14623036428593
